NORAD_CAT_ID,OBJECT_NAME,OBJECT_TYPE,EPOCH,MEAN_MOTION,ECCENTRICITY,INCLINATION,RA_OF_ASC_NODE,ARG_OF_PERICENTER,MEAN_ANOMALY,BSTAR,MEAN_MOTION_DOT,MEAN_MOTION_DDOT,TLE_LINE0,TLE_LINE1,TLE_LINE2,SEMIMAJOR_AXIS,PERIOD,APOGEE,PERIGEE,DECAYED
55646.0,STARLINK-5104,PAYLOAD,2023-07-06 13:33:02,14.99299386,0.0002963,69.9992,128.2907,270.0502,90.0318,6.5329e-06,-1.4e-07,0.0,0 STARLINK-5104,1 55646U 23021U   23187.56461005 -.00000014  00000-0  65329-5 0  9998,2 55646  69.9992 128.2907 0002963 270.0502  90.0318 14.99299386 22125,6947.197,96.045,571.12,567.003,0.0
55646.0,STARLINK-5104,PAYLOAD,2023-07-07 02:21:36,14.99305895,0.0003004,69.9991,126.9428,269.7169,90.3646,3.3855e-05,3.2e-06,0.0,0 STARLINK-5104,1 55646U 23021U   23188.09833878  .00000320  00000-0  33855-4 0  9995,2 55646  69.9991 126.9428 0003004 269.7169  90.3646 14.99305895 22207,6947.177,96.044,571.129,566.955,0.0
55646.0,STARLINK-5104,PAYLOAD,2023-07-07 23:10:33,14.99296024,0.0003031,69.999,124.7521,269.6969,90.3843,1.4623e-05,8.5e-07,0.0,0 STARLINK-5104,1 55646U 23021U   23188.96566292  .00000085  00000-0  14623-4 0  9994,2 55646  69.9990 124.7521 0003031 269.6969  90.3843 14.99296024 22339,6947.207,96.045,571.178,566.966,0.0
55646.0,STARLINK-5104,PAYLOAD,2023-07-09 02:23:46,14.99301298,0.000309,69.9992,121.8893,272.7224,87.3582,-7.1018e-05,-9.63e-06,0.0,0 STARLINK-5104,1 55646U 23021U   23190.09984828 -.00000963  00000-0 -71018-4 0  9998,2 55646  69.9992 121.8893 0003090 272.7224  87.3582 14.99301298 22500,6947.191,96.045,571.203,566.909,0.0
55646.0,STARLINK-5104,PAYLOAD,2023-07-10 02:24:51,14.99326935,0.0002733,69.9992,119.3621,274.4225,85.6622,-0.00038699,-4.829e-05,0.0,0 STARLINK-5104,1 55646U 23021U   23191.10059270 -.00004829  00000-0 -38699-3 0  9997,2 55646  69.9992 119.3621 0002733 274.4225  85.6622 14.99326935 22651,6947.112,96.043,570.875,567.078,0.0
55646.0,STARLINK-5104,PAYLOAD,2023-07-10 05:36:59,14.99331868,0.0002732,69.9991,119.025,274.303,85.7817,-0.00038553,-4.812e-05,0.0,0 STARLINK-5104,1 55646U 23021U   23191.23402123 -.00004812  00000-0 -38553-3 0  9991,2 55646  69.9991 119.0250 0002732 274.3030  85.7817 14.99331868 22677,6947.096,96.043,570.859,567.063,0.0
55646.0,STARLINK-5104,PAYLOAD,2023-07-11 05:38:28,14.99013138,0.0002808,69.9992,116.4987,277.3339,82.7501,-0.0030144,-0.00036513,0.0,0 STARLINK-5104,1 55646U 23021U   23192.23505534 -.00036513  00000-0 -30144-2 0  9992,2 55646  69.9992 116.4987 0002808 277.3339  82.7501 14.99013138 22826,6948.081,96.063,571.897,567.995,0.0
55646.0,STARLINK-5104,PAYLOAD,2023-07-11 12:03:03,14.9884728,0.0002906,69.9993,115.8256,254.9003,105.1835,-0.0046196,-0.00055517,0.0,0 STARLINK-5104,1 55646U 23021U   23192.50212387 -.00055517  00000-0 -46196-2 0  9992,2 55646  69.9993 115.8256 0002906 254.9003 105.1835 14.98847280 22863,6948.594,96.074,572.478,568.439,0.0
55646.0,STARLINK-5104,PAYLOAD,2023-07-12 12:04:48,14.98678845,0.0003053,69.9997,113.3009,271.7548,88.3261,-0.0050315,-0.00060157,0.0,0 STARLINK-5104,1 55646U 23021U   23193.50334325 -.00060157  00000-0 -50315-2 0  9994,2 55646  69.9997 113.3009 0003053 271.7548  88.3261 14.98678845 23013,6949.114,96.085,573.101,568.858,0.0
55646.0,STARLINK-5104,PAYLOAD,2023-07-12 18:29:16,14.98652238,0.0002928,69.9991,112.6266,264.112,95.9705,-0.004853,-0.00058003,0.0,0 STARLINK-5104,1 55646U 23021U   23193.77033364 -.00058003  00000-0 -48530-2 0  9995,2 55646  69.9991 112.6266 0002928 264.1120  95.9705 14.98652238 23055,6949.197,96.086,573.096,569.027,0.0
55646.0,STARLINK-5104,PAYLOAD,2023-07-13 16:55:05,14.9835924,0.0003056,69.9994,110.2702,258.7813,101.3003,-0.00063867,-7.711e-05,0.0,0 STARLINK-5104,1 55646U 23021U   23194.70492836 -.00007711  00000-0 -63867-3 0  9993,2 55646  69.9994 110.2702 0003056 258.7813 101.3003 14.98359240 23193,6950.102,96.105,574.091,569.844,0.0
55646.0,STARLINK-5104,PAYLOAD,2023-07-13 18:31:14,14.98323793,0.0002996,69.9995,110.1021,267.0654,93.0162,-1.2902e-05,-2.47e-06,0.0,0 STARLINK-5104,1 55646U 23021U   23194.77169431 -.00000247  00000-0 -12902-4 0  9994,2 55646  69.9995 110.1021 0002996 267.0654  93.0162 14.98323793 23204,6950.212,96.107,574.159,569.995,0.0
55646.0,STARLINK-5104,PAYLOAD,2023-07-14 22:00:00,14.98379377,0.0003162,70.0012,107.2145,264.8361,149.5312,-0.0043684,-0.00051899,0.0,0 STARLINK-5104,1 55646U 23021U   23195.91667824 -.00051899  00000-0 -43684-2 0  9998,2 55646  70.0012 107.2145 0003162 264.8361 149.5312 14.98379377 23378,6950.04,96.104,574.103,569.708,0.0
55646.0,STARLINK-5104,PAYLOAD,2023-07-15 04:10:02,14.98342371,0.0003031,69.9989,106.5667,266.7319,93.3494,9.7638e-05,1.073e-05,0.0,0 STARLINK-5104,1 55646U 23021U   23196.17363869  .00001073  00000-0  97638-4 0  9996,2 55646  69.9989 106.5667 0003031 266.7319  93.3494 14.98342371 23414,6950.155,96.106,574.126,569.913,0.0
55646.0,STARLINK-5104,PAYLOAD,2023-07-16 04:12:04,14.98325599,0.0003032,69.9988,104.042,264.8565,95.2248,5.6379e-06,-2.6e-07,0.0,0 STARLINK-5104,1 55646U 23021U   23197.17505143 -.00000026  00000-0  56379-5 0  9996,2 55646  69.9988 104.0420 0003032 264.8565  95.2248 14.98325599 23563,6950.207,96.107,574.179,569.964,0.0
55646.0,STARLINK-5104,PAYLOAD,2023-07-17 10:38:37,14.98334898,0.0002942,69.999,100.8437,267.9968,92.0854,-9.2956e-05,-1.202e-05,0.0,0 STARLINK-5104,1 55646U 23021U   23198.44348760 -.00001202  00000-0 -92956-4 0  9995,2 55646  69.9990 100.8437 0002942 267.9968  92.0854 14.98334898 23759,6950.178,96.107,574.087,569.998,0.0
55646.0,STARLINK-5104,PAYLOAD,2023-07-19 02:41:59,14.98324186,0.0003224,70.0007,96.6373,280.5565,79.5231,5.1251e-05,5.18e-06,0.0,0 STARLINK-5104,1 55646U 23021U   23200.11249094  .00000518  00000-0  51251-4 0  9993,2 55646  70.0007  96.6373 0003224 280.5565  79.5231 14.98324186 24007,6950.211,96.107,574.317,569.835,0.0
55646.0,STARLINK-5104,PAYLOAD,2023-07-20 15:33:04,14.98329818,0.0003006,69.9991,92.7627,270.4614,89.6201,4.7297e-05,4.71e-06,0.0,0 STARLINK-5104,1 55646U 23021U   23201.64796797  .00000471  00000-0  47297-4 0  9992,2 55646  69.9991  92.7627 0003006 270.4614  89.6201 14.98329818 24237,6950.193,96.107,574.148,569.969,0.0
55646.0,STARLINK-5104,PAYLOAD,2023-07-21 02:46:00,14.98335567,0.0002997,69.999,91.5847,270.3382,89.7434,0.00010447,1.154e-05,0.0,0 STARLINK-5104,1 55646U 23021U   23202.11528222  .00001154  00000-0  10447-3 0  9996,2 55646  69.9990  91.5847 0002997 270.3382  89.7434 14.98335567 24301,6950.176,96.107,574.124,569.958,0.0
55646.0,STARLINK-5104,PAYLOAD,2023-07-24 02:52:04,14.98307636,0.0002779,69.9993,84.0096,264.3559,95.7283,0.00021396,2.459e-05,0.0,0 STARLINK-5104,1 55646U 23021U   23205.11949615  .00002459  00000-0  21396-3 0  9996,2 55646  69.9993  84.0096 0002779 264.3559  95.7283 14.98307636 25052,6950.262,96.108,574.059,570.196,0.0
55646.0,STARLINK-5104,PAYLOAD,2023-07-25 01:17:56,14.98330676,0.0002901,69.9994,81.6535,271.2975,88.7851,2.8881e-05,2.52e-06,0.0,0 STARLINK-5104,1 55646U 23021U   23206.05412549  .00000252  00000-0  28881-4 0  9997,2 55646  69.9994  81.6535 0002901 271.2975  88.7851 14.98330676 25198,6950.191,96.107,574.072,570.04,0.0
55646.0,STARLINK-5104,PAYLOAD,2023-07-26 01:19:57,14.98328187,0.0003096,69.9987,79.1282,270.8815,89.1989,3.8689e-05,3.69e-06,0.0,0 STARLINK-5104,1 55646U 23021U   23207.05552683  .00000369  00000-0  38689-4 0  9998,2 55646  69.9987  79.1282 0003096 270.8815  89.1989 14.98328187 25343,6950.198,96.107,574.215,569.912,0.0
55646.0,STARLINK-5104,PAYLOAD,2023-07-27 01:21:58,14.98333239,0.0003138,69.9984,76.6042,269.6223,90.4576,2.1989e-05,1.69e-06,0.0,0 STARLINK-5104,1 55646U 23021U   23208.05692174  .00000169  00000-0  21989-4 0  9992,2 55646  69.9984  76.6042 0003138 269.6223  90.4576 14.98333239 25196,6950.183,96.107,574.229,569.867,0.0
55646.0,STARLINK-5104,PAYLOAD,2023-07-27 22:11:43,14.98328378,0.0003223,69.9974,74.4132,277.7036,82.3756,-4.6179e-05,-6.44e-06,0.0,0 STARLINK-5104,1 55646U 23021U   23208.92480804 -.00000644  00000-0 -46179-4 0  9991,2 55646  69.9974  74.4132 0003223 277.7036  82.3756 14.98328378 25624,6950.198,96.107,574.303,569.823,0.0
55646.0,STARLINK-5104,PAYLOAD,2023-07-28 01:23:59,14.98329296,0.0003052,69.9985,74.0787,261.3877,98.6937,-1.6901e-05,-2.95e-06,0.0,0 STARLINK-5104,1 55646U 23021U   23209.05832651 -.00000295  00000-0 -16901-4 0  9999,2 55646  69.9985  74.0787 0003052 261.3877  98.6937 14.98329296 25340,6950.195,96.107,574.181,569.939,0.0
55646.0,STARLINK-5104,PAYLOAD,2023-07-28 14:13:03,14.98364602,0.000333,69.9986,72.7318,268.2542,91.8235,-0.00057156,-6.912e-05,0.0,0 STARLINK-5104,1 55646U 23021U   23209.59240539 -.00006912  00000-0 -57156-3 0  9994,2 55646  69.9986  72.7318 0003330 268.2542  91.8235 14.98364602 25728,6950.086,96.105,574.265,569.637,0.0
55646.0,STARLINK-5104,PAYLOAD,2023-07-29 01:25:59,14.98334553,0.0003146,69.9987,71.5534,266.2804,93.7995,3.6302e-05,3.4e-06,0.0,0 STARLINK-5104,1 55646U 23021U   23210.05972133  .00000340  00000-0  36302-4 0  9997,2 55646  69.9987  71.5534 0003146 266.2804  93.7995 14.98334553 25490,6950.179,96.107,574.23,569.857,0.0
55646.0,STARLINK-5104,PAYLOAD,2023-07-30 01:28:00,14.98333881,0.0003117,69.9986,69.0284,265.6529,94.4274,6.1256e-05,6.38e-06,0.0,0 STARLINK-5104,1 55646U 23021U   23211.06111948  .00000638  00000-0  61256-4 0  9994,2 55646  69.9986  69.0284 0003117 265.6529  94.4274 14.98333881 25646,6950.181,96.107,574.212,569.88,0.0
55646.0,STARLINK-5104,PAYLOAD,2023-07-30 19:05:29,14.98330538,0.000301,69.9988,67.1763,264.2115,95.8701,-5.7034e-05,-7.73e-06,0.0,0 STARLINK-5104,1 55646U 23021U   23211.79548430 -.00000773  00000-0 -57034-4 0  9995,2 55646  69.9988  67.1763 0003010 264.2115  95.8701 14.98330538 25755,6950.191,96.107,574.148,569.964,0.0
55646.0,STARLINK-5104,PAYLOAD,2023-07-31 23:55:54,14.98332635,0.0003139,69.9986,64.1463,268.4369,91.6431,-1.5524e-05,-2.78e-06,0.0,0 STARLINK-5104,1 55646U 23021U   23212.99716083 -.00000278  00000-0 -15524-4 0  9997,2 55646  69.9986  64.1463 0003139 268.4369  91.6431 14.98332635 25930,6950.185,96.107,574.231,569.868,0.0
